ONEWEB-0517             
1 54135U 22138Y   23360.39049579 -.00000144  00000+0 -39312-3 0  9995
2 54135  87.9200 124.8741 0001357 117.1409 242.9863 13.19725596 57624
ONEWEB-0518             
1 54136U 22138Z   23360.40946275  .00000090  00000+0  19181-3 0  9997
2 54136  87.9208 124.8727 0001383 103.4180 256.7107 13.19725849 57625
ONEWEB-0519             
1 54137U 22138AA  23360.35891312  .00000107  00000+0  23583-3 0  9993
2 54137  87.9201 124.8777 0001242 122.3041 237.8212 13.19727244 57622
ONEWEB-0520             
1 54138U 22138AB  23360.39365952  .00000087  00000+0  18595-3 0  9998
2 54138  87.9198 124.8726 0001568 126.5777 233.5500 13.19724382 57617
ONEWEB-0521             
1 54139U 22138AC  23360.42682986  .00000032  00000+0  48044-4 0  9995
2 54139  87.9199 124.8621 0001386  96.6238 263.5053 13.19724092 57568
ONEWEB-0522             
1 54140U 22138AD  23360.40630594  .00000075  00000+0  15439-3 0  9991
2 54140  87.9198 124.8681 0001671 110.7539 249.3773 13.19728110 57605
ONEWEB-0523             
1 54141U 22138AE  23360.32772531 -.00001068  00000+0 -26598-2 0  9993
2 54141  87.9203  94.3618 0002307  81.9331 278.2064 13.20765591 59994
ONEWEB-0524             
1 54142U 22138AF  23360.31667553  .00000070  00000+0  13959-3 0  9998
2 54142  87.9209  94.3675 0002915 102.9294 257.2165 13.20773036 59993
